ONEWEB-0066             
1 45424U 20020A   23321.95747288 -.00000460  00000+0 -13324-2 0  9990
2 45424  87.9005 208.2786 0001191  63.3687 296.7563 13.11418081179180
ONEWEB-0067             
1 45425U 20020B   23321.44695070  .00000559  00000+0  15404-2 0  9994
2 45425  87.8990 208.3517 0001741  65.8357 294.2952 13.11417772179178
ONEWEB-0080             
1 45426U 20020C   23321.92988188  .00000068  00000+0  15572-3 0  9995
2 45426  87.9001 208.2869 0001244  71.9700 288.1563 13.11418033179205
ONEWEB-0090             
1 45427U 20020D   23321.94773598 -.00000522  00000+0 -15080-2 0  9995
2 45427  87.8995 208.2609 0001370  75.6293 284.4987 13.11416362179175
ONEWEB-0061             
1 45428U 20020E   23321.44616114  .00000445  00000+0  12194-2 0  9996
2 45428  87.9003 208.3625 0001568  70.4017 289.7280 13.11417003179067
ONEWEB-0081             
1 45429U 20020F   23321.42664911 -.00000239  00000+0 -70909-3 0  9995
2 45429  87.9003 208.3846 0001558  65.5450 294.5840 13.11418839179174
ONEWEB-0069             
1 45430U 20020G   23321.95098918 -.00000517  00000+0 -14944-2 0  9998
2 45430  87.8995 208.2709 0001503  75.9768 284.1527 13.11412648179178
ONEWEB-0031             
1 45431U 20020H   23321.92178196  .00000348  00000+0  94628-3 0  9991
2 45431  87.8998 208.2732 0001780  81.4784 278.6545 13.11413391179157
